0 FENGYUN 1C DEB
1 30207U 99025VQ  13281.31595573  .00000193  00000-0  18285-3 0   193
2 30207 098.5472 052.7311 0263680 291.0278 094.9646 13.77078774338207
0 FENGYUN 1C DEB
1 30207U 99025VQ  13282.86236925  .00000164  00000-0  15972-3 0   207
2 30207 098.5473 054.1237 0263708 286.8353 201.3049 13.77080164338418
0 FENGYUN 1C DEB
1 30207U 99025VQ  13286.33459388  .00000190  00000-0  18049-3 0   222
2 30207 098.5479 057.2512 0263713 277.4327 134.8613 13.77081729338894
0 FENGYUN 1C DEB
1 30207U 99025VQ  13287.65779322  .00000200  00000-0  18793-3 0   230
2 30207 098.5483 058.4433 0263723 273.8480 214.6294 13.77082421339078
0 FENGYUN 1C DEB
1 30207U 99025VQ  13289.09569650  .00000259  00000-0  23399-3 0   244
2 30207 098.5485 059.7387 0263759 269.9559 143.0459 13.77083416339279
0 FENGYUN 1C DEB
1 30207U 99025VQ  13290.63513495  .00000280  00000-0  25094-3 0   251
2 30207 098.5489 061.1259 0263797 265.7879 214.8290 13.77084244339482
0 FENGYUN 1C DEB
1 30207U 99025VQ  13291.87184245  .00000294  00000-0  26124-3 0   266
2 30207 098.5490 062.2401 0263828 262.4395 225.8232 13.77084956339654
0 FENGYUN 1C DEB
1 30207U 99025VQ  13292.88783236  .00000341  00000-0  29798-3 0   277
2 30207 098.5492 063.1554 0263874 259.6894 222.6102 13.77085472339798
0 FENGYUN 1C DEB
1 30207U 99025VQ  13293.90546964  .00000355  00000-0  30924-3 0   285
2 30207 098.5491 064.0722 0263920 256.9377 227.5628 13.77086366339938
0 FENGYUN 1C DEB
1 30207U 99025VQ  13294.92284336  .00000373  00000-0  32287-3 0   295
2 30207 098.5491 064.9888 0263963 254.1874 231.2103 13.77087141340078
